STARLINK-31192          
1 58794U 24012H   26068.30699284 -.00004968  00000+0 -17110-3 0  9996
2 58794  43.0023 167.7303 0001036 197.5270 162.5546 15.27584226121178
HERMES-3                
1 63835U 25052BR  26068.93751242  .00020316  00000+0  69958-3 0  9995
2 63835  97.3987 324.6131 0007993 112.9583 247.2502 15.30039785 54863
